[{"OBJECT_NAME":"STARLINK-36570","OBJECT_ID":"2026-020Z","EPOCH":"2026-03-08T13:55:50.947392","MEAN_MOTION":15.76463592,"ECCENTRICITY":0.00018309,"INCLINATION":42.9991,"RA_OF_ASC_NODE":148.6836,"ARG_OF_PERICENTER":285.4802,"MEAN_ANOMALY":74.5865,"EPHEMERIS_TYPE":0,"CLASSIFICATION_TYPE":"U","NORAD_CAT_ID":67640,"ELEMENT_SET_NO":999,"REV_AT_EPOCH":591,"BSTAR":0.0021568895,"MEAN_MOTION_DOT":0.00368006,"MEAN_MOTION_DDOT":0},{"OBJECT_NAME":"FENGYUN 1C DEB","OBJECT_ID":"1999-025AMT","EPOCH":"2026-03-09T00:15:23.574528","MEAN_MOTION":15.70909629,"ECCENTRICITY":0.00138927,"INCLINATION":99.0703,"RA_OF_ASC_NODE":83.4899,"ARG_OF_PERICENTER":75.2074,"MEAN_ANOMALY":313.8054,"EPHEMERIS_TYPE":0,"CLASSIFICATION_TYPE":"U","NORAD_CAT_ID":30612,"ELEMENT_SET_NO":999,"REV_AT_EPOCH":1589,"BSTAR":0.0070902188,"MEAN_MOTION_DOT":0.00977467,"MEAN_MOTION_DDOT":0}]
